[{"OBJECT_NAME":"STARLINK-31314","OBJECT_ID":"2024-031C","EPOCH":"2026-03-09T20:45:53.244576","MEAN_MOTION":15.30195953,"ECCENTRICITY":5.118e-5,"INCLINATION":53.1592,"RA_OF_ASC_NODE":295.6274,"ARG_OF_PERICENTER":106.017,"MEAN_ANOMALY":254.0888,"EPHEMERIS_TYPE":0,"CLASSIFICATION_TYPE":"U","NORAD_CAT_ID":58967,"ELEMENT_SET_NO":999,"REV_AT_EPOCH":11656,"BSTAR":-8.8718506e-5,"MEAN_MOTION_DOT":-2.985e-5,"MEAN_MOTION_DDOT":0},{"OBJECT_NAME":"YAOGAN-43 01F","OBJECT_ID":"2024-148F","EPOCH":"2026-03-10T00:23:08.877408","MEAN_MOTION":15.29824616,"ECCENTRICITY":0.00057048,"INCLINATION":34.9925,"RA_OF_ASC_NODE":59.8891,"ARG_OF_PERICENTER":18.4862,"MEAN_ANOMALY":341.6062,"EPHEMERIS_TYPE":0,"CLASSIFICATION_TYPE":"U","NORAD_CAT_ID":60463,"ELEMENT_SET_NO":999,"REV_AT_EPOCH":8707,"BSTAR":0.00058388219,"MEAN_MOTION_DOT":0.00017308,"MEAN_MOTION_DDOT":0}]
